[{"OBJECT_NAME":"STARLINK-30135","OBJECT_ID":"2023-079V","EPOCH":"2026-03-09T22:00:01.999584","MEAN_MOTION":15.18771874,"ECCENTRICITY":0.00020934,"INCLINATION":43,"RA_OF_ASC_NODE":105.5533,"ARG_OF_PERICENTER":301.1686,"MEAN_ANOMALY":80.9348,"EPHEMERIS_TYPE":0,"CLASSIFICATION_TYPE":"U","NORAD_CAT_ID":56842,"ELEMENT_SET_NO":999,"REV_AT_EPOCH":578,"BSTAR":0.059413815,"MEAN_MOTION_DOT":0.01369076,"MEAN_MOTION_DDOT":0},{"OBJECT_NAME":"KUIPER-00160","OBJECT_ID":"2026-030B","EPOCH":"2026-03-09T18:20:16.137888","MEAN_MOTION":15.35623214,"ECCENTRICITY":0.00052725,"INCLINATION":51.8805,"RA_OF_ASC_NODE":218.8175,"ARG_OF_PERICENTER":54.195,"MEAN_ANOMALY":305.9525,"EPHEMERIS_TYPE":0,"CLASSIFICATION_TYPE":"U","NORAD_CAT_ID":67765,"ELEMENT_SET_NO":999,"REV_AT_EPOCH":510,"BSTAR":0.0010485695,"MEAN_MOTION_DOT":0.00036682,"MEAN_MOTION_DDOT":0}]
